COSMOS 2251 DEB         
1 37337U 93036BLD 17345.25995660  .00001208  00000-0  25115-3 0  9994
2 37337  74.0226  73.5670 0036222 214.4135 176.9912 14.60833264322952
